*******************************************************************************
Ephemeris / WWW_USER Tue Mar 27 21:47:49 2018 Pasadena, USA      / Horizons    
*******************************************************************************
Target body name: Mars (499)                      {source: mar097}
Center body name: Solar System Barycenter (0)     {source: DE431mx}
Center-site name: BODY CENTER
*******************************************************************************
Start time      : A.D. 2018-Feb-08 00:00:00.0000 TDB
Stop  time      : A.D. 2019-Feb-08 00:00:00.0000 TDB
Step-size       : 7200 minutes
*******************************************************************************
Center geodetic : 0.00000000,0.00000000,0.0000000 {E-lon(deg),Lat(deg),Alt(km)}
Center cylindric: 0.00000000,0.00000000,0.0000000 {E-lon(deg),Dxy(km),Dz(km)}
Center radii    : (undefined)                                                  
Output units    : AU-D                                                         
Output type     : GEOMETRIC cartesian states
Output format   : 2 (position and velocity)
Reference frame : ICRF/J2000.0                                                 
Coordinate systm: Ecliptic and Mean Equinox of Reference Epoch                 
*******************************************************************************
JDTDB
   X     Y     Z
   VX    VY    VZ
*******************************************************************************
$$SOE
2458157.500000000 = A.D. 2018-Feb-08 00:00:00.0000 TDB 
  -1.358931539363175E+00 -8.263743615444057E-01  1.582581781867516E-02
   7.822978922009670E-03 -1.073499092266039E-02 -4.170321156223466E-04
2458162.500000000 = A.D. 2018-Feb-13 00:00:00.0000 TDB 
  -1.318584948363018E+00 -8.792718324447688E-01  1.372672648174150E-02
   8.314032484349214E-03 -1.042022682086740E-02 -4.224855327004613E-04
2458167.500000000 = A.D. 2018-Feb-18 00:00:00.0000 TDB 
  -1.275808301798507E+00 -9.305389699452100E-01  1.160217104355932E-02
   8.794832712735550E-03 -1.008286812033298E-02 -4.272138316587965E-04
2458172.500000000 = A.D. 2018-Feb-23 00:00:00.0000 TDB 
  -1.230655416899636E+00 -9.800629911709867E-01  9.455835625424756E-03
   9.264354500267444E-03 -9.722997286605502E-03 -4.311936270569481E-04
2458177.500000000 = A.D. 2018-Feb-28 00:00:00.0000 TDB 
  -1.183185310230880E+00 -1.027731625594176E+00  7.291521172462619E-03
   9.721543284323732E-03 -9.340737542312268E-03 -4.344015961401831E-04
2458182.500000000 = A.D. 2018-Mar-05 00:00:00.0000 TDB 
  -1.133462343048494E+00 -1.073433328556428E+00  5.113144541332535E-03
   1.016531577595554E-02 -8.936256641947960E-03 -4.368146685633019E-04
2458187.500000000 = A.D. 2018-Mar-10 00:00:00.0000 TDB 
  -1.081556363242209E+00 -1.117057514970736E+00  2.924737091744198E-03
   1.059456085749285E-02 -8.509771292825217E-03 -4.384101653752628E-04
2458192.500000000 = A.D. 2018-Mar-15 00:00:00.0000 TDB 
  -1.027542842037184E+00 -1.158494814143322E+00  7.304427002363498E-04
   1.100814057742674E-02 -8.061551384521035E-03 -4.391657969370047E-04
2458197.500000000 = A.D. 2018-Mar-20 00:00:00.0000 TDB 
  -9.715030034765451E-01 -1.197637346612366E+00 -1.465484866788912E-03
   1.140489197748226E-02 -7.591924257585831E-03 -4.390598725184427E-04
2458202.500000000 = A.D. 2018-Mar-25 00:00:00.0000 TDB 
  -9.135239445127347E-01 -1.234379023720098E+00 -3.658685276490181E-03
   1.178362930322114E-02 -7.101279584256239E-03 -4.380715070464626E-04
2458207.500000000 = A.D. 2018-Mar-30 00:00:00.0000 TDB 
  -8.536987432657991E-01 -1.268615870501966E+00 -5.844695738150205E-03
   1.214314636833838E-02 -6.590074058759084E-03 -4.361806574846871E-04
2458212.500000000 = A.D. 2018-Apr-04 00:00:00.0000 TDB 
  -7.921265528318873E-01 -1.300246372347904E+00 -8.018955969739608E-03
   1.248221984595374E-02 -6.058835930418868E-03 -4.333683528542791E-04
2458217.500000000 = A.D. 2018-Apr-09 00:00:00.0000 TDB 
  -7.289126778382712E-01 -1.329171845604059E+00 -1.017681407904840E-02
   1.279961316649975E-02 -5.508170029995456E-03 -4.296169687539950E-04
2458222.500000000 = A.D. 2018-Apr-14 00:00:00.0000 TDB 
  -6.641686306731039E-01 -1.355296832016225E+00 -1.231353344624047E-02
   1.309408064329594E-02 -4.938762553101384E-03 -4.249103092851697E-04
2458227.500000000 = A.D. 2018-Apr-19 00:00:00.0000 TDB 
  -5.980121641558201E-01 -1.378529516672758E+00 -1.442430068205573E-02
   1.336437259287686E-02 -4.351385427310689E-03 -4.192338540915287E-04
2458232.500000000 = A.D. 2018-Apr-24 00:00:00.0000 TDB 
  -5.305672772825679E-01 -1.398782168693148E+00 -1.650423471065831E-02
   1.360924126348456E-02 -3.746900953085068E-03 -4.125750940930541E-04
2458237.500000000 = A.D. 2018-Apr-29 00:00:00.0000 TDB 
  -4.619641904710585E-01 -1.415971603486220E+00 -1.854839705200908E-02
   1.382744705539584E-02 -3.126266078788087E-03 -4.049236606000835E-04
2458242.500000000 = A.D. 2018-May-04 00:00:00.0000 TDB 
  -3.923392866299752E-01 -1.430019665034423E+00 -2.055180337023279E-02
   1.401776574639979E-02 -2.490535935342813E-03 -3.962715815475028E-04
2458247.500000000 = A.D. 2018-May-09 00:00:00.0000 TDB 
  -3.218350143725887E-01 -1.440853726145288E+00 -2.250943631930601E-02
   1.417899666149870E-02 -1.840867328953348E-03 -3.866136644632134E-04
2458252.500000000 = A.D. 2018-May-14 00:00:00.0000 TDB 
  -2.505997496494629E-01 -1.448407204053481E+00 -2.441625973069603E-02
   1.430997113802646E-02 -1.178521676858975E-03 -3.759476651753180E-04
2458257.500000000 = A.D. 2018-May-19 00:00:00.0000 TDB 
  -1.787876121474468E-01 -1.452620088252848E+00 -2.626723417600786E-02
   1.440956189181774E-02 -5.048668194626723E-04 -3.642745340650691E-04
2458262.500000000 = A.D. 2018-May-24 00:00:00.0000 TDB 
  -1.065582330010513E-01 -1.453439476802558E+00 -2.805733389217519E-02
   1.447669333875243E-02  1.786216234418653E-04 -3.515988165171001E-04
2458267.500000000 = A.D. 2018-May-29 00:00:00.0000 TDB 
  -3.407647054364690E-02 -1.450820116684356E+00 -2.978156506090219E-02
   1.451035211084398E-02  8.703597117559531E-04 -3.379288386412268E-04
2458272.500000000 = A.D. 2018-Jun-03 00:00:00.0000 TDB 
   3.848792885867314E-02 -1.444724943230784E+00 -3.143498542373592E-02
   1.450959821649317E-02  1.568656175033010E-03 -3.232769133246029E-04
2458277.500000000 = A.D. 2018-Jun-08 00:00:00.0000 TDB 
   1.109607273479240E-01 -1.435125613010532E+00 -3.301272515938525E-02
   1.447357698809856E-02  2.271714309123310E-03 -3.076597167126602E-04
2458282.500000000 = A.D. 2018-Jun-13 00:00:00.0000 TDB 
   1.831636514321734E-01 -1.422003023901739E+00 -3.451000894109571E-02
   1.440153096004164E-02  2.977634949564440E-03 -2.910984559065813E-04
2458287.500000000 = A.D. 2018-Jun-18 00:00:00.0000 TDB 
   2.549149084637046E-01 -1.405347815590467E+00 -3.592217908208140E-02
   1.429281193189078E-02  3.684421331284952E-03 -2.736189936936225E-04
2458292.500000000 = A.D. 2018-Jun-23 00:00:00.0000 TDB 
   3.260297641954361E-01 -1.385160843252142E+00 -3.724471961762284E-02
   1.414689343027236E-02  4.389985254661811E-03 -2.552521479455227E-04
2458297.500000000 = A.D. 2018-Jun-28 00:00:00.0000 TDB 
   3.963211809976948E-01 -1.361453616726147E+00 -3.847328115367400E-02
   1.396338264886860E-02  5.092154495269764E-03 -2.360337955116008E-04
2458302.500000000 = A.D. 2018-Jul-03 00:00:00.0000 TDB 
   4.656005153436520E-01 -1.334248697271153E+00 -3.960370630504285E-02
   1.374203190686029E-02  5.788682285070630E-03 -2.160048682268274E-04
2458307.500000000 = A.D. 2018-Jul-08 00:00:00.0000 TDB 
   5.336782720001658E-01 -1.303580043859989E+00 -4.063205548698928E-02
   1.348274989798025E-02  6.477258324046789E-03 -1.952115167697595E-04
2458312.500000000 = A.D. 2018-Jul-13 00:00:00.0000 TDB 
   6.003649111812780E-01 -1.269493300912898E+00 -4.155463279823850E-02
   1.318561179880895E-02  7.155520999500438E-03 -1.737051001650860E-04
2458317.500000000 = A.D. 2018-Jul-18 00:00:00.0000 TDB 
   6.654717037250664E-01 -1.232046019591129E+00 -4.236801173076072E-02
   1.285086807745804E-02  7.821071584332239E-03 -1.515420046735775E-04
2458322.500000000 = A.D. 2018-Jul-23 00:00:00.0000 TDB 
   7.288116280300343E-01 -1.191307805168391E+00 -4.306906038334905E-02
   1.247895235036704E-02  8.471489905558204E-03 -1.287836125594147E-04
2458327.500000000 = A.D. 2018-Jul-28 00:00:00.0000 TDB 
   7.902003012449809E-01 -1.147360383483145E+00 -4.365496582287657E-02
   1.207048743425658E-02  9.104350887637976E-03 -1.054961239929806E-04
2458332.500000000 = A.D. 2018-Aug-02 00:00:00.0000 TDB 
   8.494569361047756E-01 -1.100297580275359E+00 -4.412325724630169E-02
   1.162628930173586E-02  9.717242618645493E-03 -8.175015373491488E-05
2458337.500000000 = A.D. 2018-Aug-07 00:00:00.0000 TDB 
   9.064053137125698E-01 -1.050225208259860E+00 -4.447182756599965E-02
   1.114736941561268E-02  1.030778545651669E-02 -5.762045933417337E-05
2458342.500000000 = A.D. 2018-Aug-12 00:00:00.0000 TDB 
   9.608747616622774E-01 -9.972608579550848E-01 -4.469895304359429E-02
   1.063493477314536E-02  1.087365130572390E-02 -3.318557392276789E-05
2458347.500000000 = A.D. 2018-Aug-17 00:00:00.0000 TDB 
   1.012701126238586E+00 -9.415335897531666E-01 -4.480331066114306E-02
   1.009038530378589E-02  1.141258353954140E-02 -8.527193126103671E-06
2458352.500000000 = A.D. 2018-Aug-22 00:00:00.0000 TDB 
   1.061727726874759E+00 -8.831835264030407E-01 -4.478399293620638E-02
   9.515309246722347E-03  1.192241713805175E-02  1.627030812766283E-05
2458357.500000000 = A.D. 2018-Aug-27 00:00:00.0000 TDB 
   1.107806280726537E+00 -8.223613467846743E-01 -4.464051990435070E-02
   8.911476091309043E-03  1.240109797356111E-02  4.112038257261077E-05
2458362.500000000 = A.D. 2018-Sep-01 00:00:00.0000 TDB 
   1.150797785209105E+00 -7.592276836692490E-01 -4.437284805903498E-02
   8.280826708963879E-03  1.284670158715832E-02  6.593506695668337E-05
